start=new Date('2022-11-30T00:00:00.000Z').valueOf();
sats=[{"SITE":"AFWTR","PERIAPSIS":"561.700","ARG_OF_PERICENTER":"70.9324","MEAN_MOTION":"15.01254743","RA_OF_ASC_NODE":"152.3836","GP_ID":"219075810","TLE_LINE2":"2 53068  97.6552 152.3836 0001913  70.9324 289.2107 15.01254743 21447","TLE_LINE1":"1 53068U 22077AB  22333.46440951  .00000731  00000-0  61512-4 0  9996","REV_AT_EPOCH":"2144","REF_FRAME":"TEME","RCS_SIZE":"LARGE","LAUNCH_DATE":"2022-07-11","INCLINATION":"97.6552","MEAN_MOTION_DDOT":"0.0000000000000","COUNTRY_CODE":"US","APOAPSIS":"564.356","MEAN_ELEMENT_THEORY":"SGP4","MEAN_MOTION_DOT":"0.00000731","EPOCH":"2022-11-29T11:08:44.981664","OBJECT_ID":"2022-077AB","BSTAR":"0.00006151200000","OBJECT_TYPE":"PAYLOAD","CLASSIFICATION_TYPE":"U","ECCENTRICITY":"0.00019130","DECAY_DATE":null,"FILE":"3673336","NORAD_CAT_ID":"53068","TIME_SYSTEM":"UTC","OBJECT_NAME":"STARLINK-4325","PERIOD":"95.920","CENTER_NAME":"EARTH","ELEMENT_SET_NO":"999","SEMIMAJOR_AXIS":"6941.163","EPHEMERIS_TYPE":"0","MEAN_ANOMALY":"289.2107"},{"SITE":"AFWTR","PERIAPSIS":"561.630","MEAN_MOTION":"15.01263358","ARG_OF_PERICENTER":"55.4614","RA_OF_ASC_NODE":"152.3885","TLE_LINE2":"2 53069  97.6590 152.3885 0001976  55.4614 304.6797 15.01263358 22027","GP_ID":"219077224","TLE_LINE1":"1 53069U 22077AC  22333.45860892  .00001208  00000-0  98659-4 0  9998","REV_AT_EPOCH":"2202","REF_FRAME":"TEME","RCS_SIZE":"LARGE","INCLINATION":"97.6590","MEAN_MOTION_DDOT":"0.0000000000000","LAUNCH_DATE":"2022-07-11","COUNTRY_CODE":"US","APOAPSIS":"564.373","EPOCH":"2022-11-29T11:00:23.810688","MEAN_ELEMENT_THEORY":"SGP4","MEAN_MOTION_DOT":"0.00001208","OBJECT_ID":"2022-077AC","OBJECT_TYPE":"PAYLOAD","BSTAR":"0.00009865900000","CLASSIFICATION_TYPE":"U","ECCENTRICITY":"0.00019760","DECAY_DATE":null,"NORAD_CAT_ID":"53069","FILE":"3673384","TIME_SYSTEM":"UTC","OBJECT_NAME":"STARLINK-4323","PERIOD":"95.919","CENTER_NAME":"EARTH","ELEMENT_SET_NO":"999","SEMIMAJOR_AXIS":"6941.136","MEAN_ANOMALY":"304.6797","EPHEMERIS_TYPE":"0"},{"MEAN_MOTION_DDOT":"0.0000000000000","INCLINATION":"97.6553","LAUNCH_DATE":"2022-07-11","REF_FRAME":"TEME","RCS_SIZE":"LARGE","EPOCH":"2022-11-29T11:08:23.456832","MEAN_ELEMENT_THEORY":"SGP4","MEAN_MOTION_DOT":"0.00001077","OBJECT_ID":"2022-077AD","COUNTRY_CODE":"US","APOAPSIS":"563.904","MEAN_MOTION":"15.01277187","ARG_OF_PERICENTER":"68.3078","RA_OF_ASC_NODE":"152.3829","SITE":"AFWTR","PERIAPSIS":"562.014","REV_AT_EPOCH":"2144","TLE_LINE2":"2 53070  97.6553 152.3829 0001361  68.3078 291.8291 15.01277187 21447","GP_ID":"219075113","TLE_LINE1":"1 53070U 22077AD  22333.46416038  .00001077  00000-0  88371-4 0  9994","CENTER_NAME":"EARTH","ELEMENT_SET_NO":"999","OBJECT_NAME":"STARLINK-4342","PERIOD":"95.918","EPHEMERIS_TYPE":"0","MEAN_ANOMALY":"291.8291","SEMIMAJOR_AXIS":"6941.094","CLASSIFICATION_TYPE":"U","OBJECT_TYPE":"PAYLOAD","BSTAR":"0.00008837100000","NORAD_CAT_ID":"53070","FILE":"3673336","TIME_SYSTEM":"UTC","ECCENTRICITY":"0.00013610","DECAY_DATE":null},{"SITE":"AFWTR","PERIAPSIS":"561.652","ARG_OF_PERICENTER":"59.1254","MEAN_MOTION":"15.01256158","RA_OF_ASC_NODE":"152.5196","TLE_LINE2":"2 53071  97.6588 152.5196 0001976  59.1254 301.0165 15.01256158 21462","GP_ID":"219113655","TLE_LINE1":"1 53071U 22077AE  22333.59006774  .00001125  00000-0  92189-4 0  9997","REV_AT_EPOCH":"2146","REF_FRAME":"TEME","RCS_SIZE":"LARGE","INCLINATION":"97.6588","MEAN_MOTION_DDOT":"0.0000000000000","LAUNCH_DATE":"2022-07-11","COUNTRY_CODE":"US","APOAPSIS":"564.395","EPOCH":"2022-11-29T14:09:41.852736","MEAN_MOTION_DOT":"0.00001125","MEAN_ELEMENT_THEORY":"SGP4","OBJECT_ID":"2022-077AE","BSTAR":"0.00009218900000","OBJECT_TYPE":"PAYLOAD","CLASSIFICATION_TYPE":"U","ECCENTRICITY":"0.00019760","DECAY_DATE":null,"NORAD_CAT_ID":"53071","FILE":"3673849","TIME_SYSTEM":"UTC","OBJECT_NAME":"STARLINK-4328","PERIOD":"95.920","CENTER_NAME":"EARTH","ELEMENT_SET_NO":"999","SEMIMAJOR_AXIS":"6941.159","EPHEMERIS_TYPE":"0","MEAN_ANOMALY":"301.0165"},{"REF_FRAME":"TEME","RCS_SIZE":"LARGE","LAUNCH_DATE":"2022-07-11","INCLINATION":"97.6575","MEAN_MOTION_DDOT":"0.0000000000000","COUNTRY_CODE":"US","APOAPSIS":"564.292","MEAN_MOTION_DOT":"0.00000964","MEAN_ELEMENT_THEORY":"SGP4","EPOCH":"2022-11-29T11:03:04.022208","OBJECT_ID":"2022-077AF","SITE":"AFWTR","PERIAPSIS":"561.721","MEAN_MOTION":"15.01261735","ARG_OF_PERICENTER":"78.0832","RA_OF_ASC_NODE":"152.3829","GP_ID":"219076158","TLE_LINE2":"2 53072  97.6575 152.3829 0001852  78.0832 282.0600 15.01261735 21442","TLE_LINE1":"1 53072U 22077AF  22333.46046322  .00000964  00000-0  79635-4 0  9998","REV_AT_EPOCH":"2144","OBJECT_NAME":"STARLINK-4344","PERIOD":"95.919","CENTER_NAME":"EARTH","ELEMENT_SET_NO":"999","SEMIMAJOR_AXIS":"6941.141","MEAN_ANOMALY":"282.0600","EPHEMERIS_TYPE":"0","OBJECT_TYPE":"PAYLOAD","BSTAR":"0.00007963500000","CLASSIFICATION_TYPE":"U","ECCENTRICITY":"0.00018520","DECAY_DATE":null,"NORAD_CAT_ID":"53072","FILE":"3673336","TIME_SYSTEM":"UTC"},{"NORAD_CAT_ID":"53073","FILE":"3673849","TIME_SYSTEM":"UTC","ECCENTRICITY":"0.00024400","DECAY_DATE":null,"CLASSIFICATION_TYPE":"U","BSTAR":"0.00007417600000","OBJECT_TYPE":"PAYLOAD","EPHEMERIS_TYPE":"0","MEAN_ANOMALY":"308.2266","SEMIMAJOR_AXIS":"6941.159","CENTER_NAME":"EARTH","ELEMENT_SET_NO":"999","OBJECT_NAME":"STARLINK-4346","PERIOD":"95.920","REV_AT_EPOCH":"2149","GP_ID":"219114350","TLE_LINE2":"2 53073  97.6579 152.7225 0002440  51.9178 308.2266 15.01256169 21497","TLE_LINE1":"1 53073U 22077AG  22333.78632334  .00000894  00000-0  74176-4 0  9995","ARG_OF_PERICENTER":"51.9178","MEAN_MOTION":"15.01256169","RA_OF_ASC_NODE":"152.7225","SITE":"AFWTR","PERIAPSIS":"561.330","MEAN_ELEMENT_THEORY":"SGP4","MEAN_MOTION_DOT":"0.00000894","EPOCH":"2022-11-29T18:52:18.336576","OBJECT_ID":"2022-077AG","COUNTRY_CODE":"US","APOAPSIS":"564.717","LAUNCH_DATE":"2022-07-11","INCLINATION":"97.6579","MEAN_MOTION_DDOT":"0.0000000000000","REF_FRAME":"TEME","RCS_SIZE":"LARGE"},{"SEMIMAJOR_AXIS":"6941.143","EPHEMERIS_TYPE":"0","MEAN_ANOMALY":"306.5826","OBJECT_NAME":"STARLINK-4310","PERIOD":"95.919","CENTER_NAME":"EARTH","ELEMENT_SET_NO":"999","ECCENTRICITY":"0.00019720","DECAY_DATE":null,"NORAD_CAT_ID":"53074","FILE":"3673336","TIME_SYSTEM":"UTC","OBJECT_TYPE":"PAYLOAD","BSTAR":"0.00006258400000","CLASSIFICATION_TYPE":"U","COUNTRY_CODE":"US","APOAPSIS":"564.376","MEAN_ELEMENT_THEORY":"SGP4","MEAN_MOTION_DOT":"0.00000745","EPOCH":"2022-11-29T10:58:04.931328","OBJECT_ID":"2022-077AH","REF_FRAME":"TEME","RCS_SIZE":"LARGE","LAUNCH_DATE":"2022-07-11","INCLINATION":"97.6594","MEAN_MOTION_DDOT":"0.0000000000000","GP_ID":"219075462","TLE_LINE2":"2 53074  97.6594 152.3870 0001972  53.5580 306.5826 15.01261408 21441","TLE_LINE1":"1 53074U 22077AH  22333.45700152  .00000745  00000-0  62584-4 0  9999","REV_AT_EPOCH":"2144","SITE":"AFWTR","PERIAPSIS":"561.639","ARG_OF_PERICENTER":"53.5580","MEAN_MOTION":"15.01261408","RA_OF_ASC_NODE":"152.3870"},{"MEAN_MOTION_DDOT":"0.0000000000000","INCLINATION":"97.6565","LAUNCH_DATE":"2022-07-11","REF_FRAME":"TEME","RCS_SIZE":"LARGE","EPOCH":"2022-11-29T18:47:18.694464","MEAN_ELEMENT_THEORY":"SGP4","MEAN_MOTION_DOT":"0.00002542","OBJECT_ID":"2022-077AJ","COUNTRY_CODE":"US","APOAPSIS":"564.818","MEAN_MOTION":"15.01263610","ARG_OF_PERICENTER":"24.7194","RA_OF_ASC_NODE":"152.7277","SITE":"AFWTR","PERIAPSIS":"561.184","REV_AT_EPOCH":"2149","TLE_LINE2":"2 53075  97.6565 152.7277 0002618  24.7194 335.4155 15.01263610 21492","GP_ID":"219114002","TLE_LINE1":"1 53075U 22077AJ  22333.78285526  .00002542  00000-0  20242-3 0  9990","CENTER_NAME":"EARTH","ELEMENT_SET_NO":"999","OBJECT_NAME":"STARLINK-4348","PERIOD":"95.919","MEAN_ANOMALY":"335.4155","EPHEMERIS_TYPE":"0","SEMIMAJOR_AXIS":"6941.136","CLASSIFICATION_TYPE":"U","BSTAR":"0.00020242000000","OBJECT_TYPE":"PAYLOAD","NORAD_CAT_ID":"53075","FILE":"3673849","TIME_SYSTEM":"UTC","ECCENTRICITY":"0.00026180","DECAY_DATE":null},{"APOAPSIS":"564.470","COUNTRY_CODE":"US","OBJECT_ID":"2022-077AK","MEAN_ELEMENT_THEORY":"SGP4","MEAN_MOTION_DOT":"0.00000669","EPOCH":"2022-11-29T18:54:58.084992","RCS_SIZE":"LARGE","REF_FRAME":"TEME","LAUNCH_DATE":"2022-07-11","MEAN_MOTION_DDOT":"0.0000000000000","INCLINATION":"97.6589","TLE_LINE1":"1 53076U 22077AK  22333.78817228  .00000669  00000-0  56652-4 0  9994","GP_ID":"219114177","TLE_LINE2":"2 53076  97.6589 152.7195 0002085  49.9468 310.1939 15.01256417 21496","REV_AT_EPOCH":"2149","PERIAPSIS":"561.576","SITE":"AFWTR","RA_OF_ASC_NODE":"152.7195","ARG_OF_PERICENTER":"49.9468","MEAN_MOTION":"15.01256417","SEMIMAJOR_AXIS":"6941.158","EPHEMERIS_TYPE":"0","MEAN_ANOMALY":"310.1939","PERIOD":"95.920","OBJECT_NAME":"STARLINK-4347","ELEMENT_SET_NO":"999","CENTER_NAME":"EARTH","DECAY_DATE":null,"ECCENTRICITY":"0.00020850","TIME_SYSTEM":"UTC","FILE":"3673849","NORAD_CAT_ID":"53076","BSTAR":"0.00005665200000","OBJECT_TYPE":"PAYLOAD","CLASSIFICATION_TYPE":"U"},{"EPOCH":"2022-11-29T18:44:18.305952","MEAN_ELEMENT_THEORY":"SGP4","MEAN_MOTION_DOT":"0.00001563","OBJECT_ID":"2022-077AL","COUNTRY_CODE":"US","APOAPSIS":"565.112","INCLINATION":"97.6558","MEAN_MOTION_DDOT":"0.0000000000000","LAUNCH_DATE":"2022-07-11","REF_FRAME":"TEME","RCS_SIZE":"LARGE","REV_AT_EPOCH":"2149","TLE_LINE2":"2 53077  97.6558 152.7286 0002970  33.3733 326.7678 15.01247387 21498","GP_ID":"219114696","TLE_LINE1":"1 53077U 22077AL  22333.78076743  .00001563  00000-0  12633-3 0  9998","ARG_OF_PERICENTER":"33.3733","MEAN_MOTION":"15.01247387","RA_OF_ASC_NODE":"152.7286","SITE":"AFWTR","PERIAPSIS":"560.989","EPHEMERIS_TYPE":"0","MEAN_ANOMALY":"326.7678","SEMIMAJOR_AXIS":"6941.186","CENTER_NAME":"EARTH","ELEMENT_SET_NO":"999","OBJECT_NAME":"STARLINK-4315","PERIOD":"95.920","FILE":"3673849","NORAD_CAT_ID":"53077","TIME_SYSTEM":"UTC","ECCENTRICITY":"0.00029700","DECAY_DATE":null,"CLASSIFICATION_TYPE":"U","OBJECT_TYPE":"PAYLOAD","BSTAR":"0.00012633000000"}];
